start=new Date('2023-05-09T00:00:00.000Z').valueOf();
sats=[{"OBJECT_NAME":"STARLINK-2367","RA_OF_ASC_NODE":"252.6954","BSTAR":"0.00168580000000","ECCENTRICITY":"0.00008990","MEAN_MOTION_DDOT":"0.0000000000000","REF_FRAME":"TEME","RCS_SIZE":"LARGE","PERIOD":"95.593","TLE_LINE1":"1 47907U 21021AZ  23128.62473662  .00024905  00000-0  16858-2 0  9995","PERIAPSIS":"546.648","GP_ID":"231472630","DECAY_DATE":null,"APOAPSIS":"547.893","SITE":"AFETR","ARG_OF_PERICENTER":"77.6690","MEAN_MOTION":"15.06381332","NORAD_CAT_ID":"47907","REV_AT_EPOCH":"11985","OBJECT_ID":"2021-021AZ","ELEMENT_SET_NO":"999","LAUNCH_DATE":"2021-03-14","TIME_SYSTEM":"UTC","MEAN_ANOMALY":"282.4400","MEAN_ELEMENT_THEORY":"SGP4","TLE_LINE2":"2 47907  53.0540 252.6954 0000899  77.6690 282.4400 15.06381332119856","FILE":"3904305","MEAN_MOTION_DOT":"0.00024905","SEMIMAJOR_AXIS":"6925.406","COUNTRY_CODE":"US","CLASSIFICATION_TYPE":"U","EPHEMERIS_TYPE":"0","CENTER_NAME":"EARTH","OBJECT_TYPE":"PAYLOAD","INCLINATION":"53.0540","EPOCH":"2023-05-08T14:59:37.243968"},{"DECAY_DATE":null,"APOAPSIS":"548.157","PERIOD":"95.597","RCS_SIZE":"LARGE","REF_FRAME":"TEME","GP_ID":"231473387","TLE_LINE1":"1 47908U 21021BA  23128.83113254  .00032217  00000-0  21763-2 0  9993","PERIAPSIS":"546.729","REV_AT_EPOCH":"11991","OBJECT_ID":"2021-021BA","SITE":"AFETR","ARG_OF_PERICENTER":"85.2684","NORAD_CAT_ID":"47908","MEAN_MOTION":"15.06325132","BSTAR":"0.00217630000000","ECCENTRICITY":"0.00010310","RA_OF_ASC_NODE":"251.7664","OBJECT_NAME":"STARLINK-2368","MEAN_MOTION_DDOT":"0.0000000000000","EPHEMERIS_TYPE":"0","CENTER_NAME":"EARTH","SEMIMAJOR_AXIS":"6925.578","CLASSIFICATION_TYPE":"U","COUNTRY_CODE":"US","EPOCH":"2023-05-08T19:56:49.851456","INCLINATION":"53.0544","OBJECT_TYPE":"PAYLOAD","TLE_LINE2":"2 47908  53.0544 251.7664 0001031  85.2684 274.8423 15.06325132119919","TIME_SYSTEM":"UTC","LAUNCH_DATE":"2021-03-14","MEAN_ELEMENT_THEORY":"SGP4","MEAN_ANOMALY":"274.8423","ELEMENT_SET_NO":"999","FILE":"3904305","MEAN_MOTION_DOT":"0.00032217"},{"MEAN_MOTION_DOT":"0.00018486","FILE":"3904305","LAUNCH_DATE":"2021-03-14","TIME_SYSTEM":"UTC","MEAN_ELEMENT_THEORY":"SGP4","MEAN_ANOMALY":"271.7550","ELEMENT_SET_NO":"999","TLE_LINE2":"2 47909  53.0533 242.8871 0001142  88.3570 271.7550 15.06366144120186","OBJECT_TYPE":"PAYLOAD","EPOCH":"2023-05-08T13:57:14.160096","INCLINATION":"53.0533","CLASSIFICATION_TYPE":"U","COUNTRY_CODE":"US","SEMIMAJOR_AXIS":"6925.452","CENTER_NAME":"EARTH","EPHEMERIS_TYPE":"0","MEAN_MOTION_DDOT":"0.0000000000000","OBJECT_NAME":"STARLINK-2369","RA_OF_ASC_NODE":"242.8871","ECCENTRICITY":"0.00011420","BSTAR":"0.00125780000000","NORAD_CAT_ID":"47909","MEAN_MOTION":"15.06366144","ARG_OF_PERICENTER":"88.3570","SITE":"AFETR","OBJECT_ID":"2021-021BB","REV_AT_EPOCH":"12018","GP_ID":"231474135","TLE_LINE1":"1 47909U 21021BB  23128.58141389  .00018486  00000-0  12578-2 0  9992","PERIAPSIS":"546.526","PERIOD":"95.594","RCS_SIZE":"LARGE","REF_FRAME":"TEME","APOAPSIS":"548.108","DECAY_DATE":null},{"CENTER_NAME":"EARTH","EPHEMERIS_TYPE":"0","CLASSIFICATION_TYPE":"U","COUNTRY_CODE":"US","SEMIMAJOR_AXIS":"6925.423","INCLINATION":"53.0541","EPOCH":"2023-05-08T16:24:30.732192","OBJECT_TYPE":"PAYLOAD","TLE_LINE2":"2 47910  53.0541 242.4295 0001131  64.7429 295.3677 15.06375703120051","MEAN_ELEMENT_THEORY":"SGP4","LAUNCH_DATE":"2021-03-14","TIME_SYSTEM":"UTC","ELEMENT_SET_NO":"999","MEAN_ANOMALY":"295.3677","MEAN_MOTION_DOT":"0.00031657","FILE":"3904305","APOAPSIS":"548.071","DECAY_DATE":null,"GP_ID":"231472886","TLE_LINE1":"1 47910U 21021BC  23128.68368903  .00031657  00000-0  21360-2 0  9992","PERIAPSIS":"546.505","RCS_SIZE":"LARGE","PERIOD":"95.594","REF_FRAME":"TEME","OBJECT_ID":"2021-021BC","REV_AT_EPOCH":"12005","NORAD_CAT_ID":"47910","MEAN_MOTION":"15.06375703","SITE":"AFETR","ARG_OF_PERICENTER":"64.7429","ECCENTRICITY":"0.00011310","BSTAR":"0.00213600000000","RA_OF_ASC_NODE":"242.4295","OBJECT_NAME":"STARLINK-2370","MEAN_MOTION_DDOT":"0.0000000000000"},{"LAUNCH_DATE":"2021-03-14","MEAN_ELEMENT_THEORY":"SGP4","TIME_SYSTEM":"UTC","MEAN_ANOMALY":"271.8215","ELEMENT_SET_NO":"999","TLE_LINE2":"2 47911  53.0541 257.8940 0001358  88.2930 271.8215 15.06368762119667","FILE":"3904305","MEAN_MOTION_DOT":"0.00027502","SEMIMAJOR_AXIS":"6925.444","CLASSIFICATION_TYPE":"U","COUNTRY_CODE":"US","EPHEMERIS_TYPE":"0","CENTER_NAME":"EARTH","OBJECT_TYPE":"PAYLOAD","EPOCH":"2023-05-08T15:12:15.510240","INCLINATION":"53.0541","OBJECT_NAME":"STARLINK-2371","RA_OF_ASC_NODE":"257.8940","BSTAR":"0.00185960000000","ECCENTRICITY":"0.00013580","MEAN_MOTION_DDOT":"0.0000000000000","RCS_SIZE":"LARGE","PERIOD":"95.594","REF_FRAME":"TEME","PERIAPSIS":"546.369","TLE_LINE1":"1 47911U 21021BD  23128.63351285  .00027502  00000-0  18596-2 0  9994","GP_ID":"231473131","DECAY_DATE":null,"APOAPSIS":"548.250","SITE":"AFETR","ARG_OF_PERICENTER":"88.2930","NORAD_CAT_ID":"47911","MEAN_MOTION":"15.06368762","REV_AT_EPOCH":"11966","OBJECT_ID":"2021-021BD"},{"FILE":"3904305","MEAN_MOTION_DOT":"0.00022058","MEAN_ELEMENT_THEORY":"SGP4","LAUNCH_DATE":"2021-03-14","MEAN_ANOMALY":"297.5226","TIME_SYSTEM":"UTC","ELEMENT_SET_NO":"999","TLE_LINE2":"2 47912  53.0539 242.7448 0000990  62.5864 297.5226 15.06380528119877","OBJECT_TYPE":"PAYLOAD","EPOCH":"2023-05-08T14:38:21.948000","INCLINATION":"53.0539","SEMIMAJOR_AXIS":"6925.408","COUNTRY_CODE":"US","CLASSIFICATION_TYPE":"U","EPHEMERIS_TYPE":"0","CENTER_NAME":"EARTH","MEAN_MOTION_DDOT":"0.0000000000000","RA_OF_ASC_NODE":"242.7448","OBJECT_NAME":"STARLINK-2372","BSTAR":"0.00149590000000","ECCENTRICITY":"0.00009900","ARG_OF_PERICENTER":"62.5864","SITE":"AFETR","MEAN_MOTION":"15.06380528","NORAD_CAT_ID":"47912","REV_AT_EPOCH":"11987","OBJECT_ID":"2021-021BE","REF_FRAME":"TEME","RCS_SIZE":"LARGE","PERIOD":"95.593","PERIAPSIS":"546.588","TLE_LINE1":"1 47912U 21021BE  23128.60997625  .00022058  00000-0  14959-2 0  9996","GP_ID":"231473888","DECAY_DATE":null,"APOAPSIS":"547.959"},{"MEAN_MOTION_DDOT":"0.0000000000000","OBJECT_NAME":"STARLINK-2374","RA_OF_ASC_NODE":"252.6028","BSTAR":"0.00222790000000","ECCENTRICITY":"0.00011390","SITE":"AFETR","ARG_OF_PERICENTER":"89.1493","NORAD_CAT_ID":"47913","MEAN_MOTION":"15.06383390","REV_AT_EPOCH":"11942","OBJECT_ID":"2021-021BF","PERIOD":"95.593","RCS_SIZE":"LARGE","REF_FRAME":"TEME","TLE_LINE1":"1 47913U 21021BF  23128.75011667  .00033044  00000-0  22279-2 0  9997","GP_ID":"231448385","PERIAPSIS":"546.476","DECAY_DATE":null,"APOAPSIS":"548.053","FILE":"3904128","MEAN_MOTION_DOT":"0.00033044","TIME_SYSTEM":"UTC","LAUNCH_DATE":"2021-03-14","ELEMENT_SET_NO":"999","MEAN_ANOMALY":"270.9627","MEAN_ELEMENT_THEORY":"SGP4","TLE_LINE2":"2 47913  53.0540 252.6028 0001139  89.1493 270.9627 15.06383390119424","OBJECT_TYPE":"PAYLOAD","EPOCH":"2023-05-08T18:00:10.080288","INCLINATION":"53.0540","SEMIMAJOR_AXIS":"6925.399","CLASSIFICATION_TYPE":"U","COUNTRY_CODE":"US","EPHEMERIS_TYPE":"0","CENTER_NAME":"EARTH"},{"DECAY_DATE":null,"APOAPSIS":"548.066","REF_FRAME":"TEME","RCS_SIZE":"LARGE","PERIOD":"95.594","PERIAPSIS":"546.501","TLE_LINE1":"1 47914U 21021BG  23128.76848243  .00031446  00000-0  21219-2 0  9994","GP_ID":"231472386","REV_AT_EPOCH":"11991","OBJECT_ID":"2021-021BG","ARG_OF_PERICENTER":"79.4543","SITE":"AFETR","MEAN_MOTION":"15.06377261","NORAD_CAT_ID":"47914","BSTAR":"0.00212190000000","ECCENTRICITY":"0.00011300","RA_OF_ASC_NODE":"252.0446","OBJECT_NAME":"STARLINK-2375","MEAN_MOTION_DDOT":"0.0000000000000","EPHEMERIS_TYPE":"0","CENTER_NAME":"EARTH","SEMIMAJOR_AXIS":"6925.418","COUNTRY_CODE":"US","CLASSIFICATION_TYPE":"U","INCLINATION":"53.0541","EPOCH":"2023-05-08T18:26:36.881952","OBJECT_TYPE":"PAYLOAD","TLE_LINE2":"2 47914  53.0541 252.0446 0001130  79.4543 280.6573 15.06377261119915","MEAN_ANOMALY":"280.6573","LAUNCH_DATE":"2021-03-14","MEAN_ELEMENT_THEORY":"SGP4","ELEMENT_SET_NO":"999","TIME_SYSTEM":"UTC","FILE":"3904305","MEAN_MOTION_DOT":"0.00031446"},{"OBJECT_NAME":"STARLINK-2376","RA_OF_ASC_NODE":"247.6523","ECCENTRICITY":"0.00010770","BSTAR":"0.00245990000000","MEAN_MOTION_DDOT":"0.0000000000000","GP_ID":"231472631","TLE_LINE1":"1 47915U 21021BH  23128.63441770  .00036491  00000-0  24599-2 0  9994","PERIAPSIS":"546.646","REF_FRAME":"TEME","PERIOD":"95.596","RCS_SIZE":"LARGE","APOAPSIS":"548.138","DECAY_DATE":null,"MEAN_MOTION":"15.06341865","NORAD_CAT_ID":"47915","SITE":"AFETR","ARG_OF_PERICENTER":"87.4706","OBJECT_ID":"2021-021BH","REV_AT_EPOCH":"11997","LAUNCH_DATE":"2021-03-14","MEAN_ELEMENT_THEORY":"SGP4","TIME_SYSTEM":"UTC","ELEMENT_SET_NO":"999","MEAN_ANOMALY":"272.6407","TLE_LINE2":"2 47915  53.0536 247.6523 0001077  87.4706 272.6407 15.06341865119970","MEAN_MOTION_DOT":"0.00036491","FILE":"3904305","COUNTRY_CODE":"US","CLASSIFICATION_TYPE":"U","SEMIMAJOR_AXIS":"6925.527","CENTER_NAME":"EARTH","EPHEMERIS_TYPE":"0","OBJECT_TYPE":"PAYLOAD","INCLINATION":"53.0536","EPOCH":"2023-05-08T15:13:33.689280"},{"INCLINATION":"53.0530","EPOCH":"2023-05-08T14:35:44.572128","OBJECT_TYPE":"PAYLOAD","EPHEMERIS_TYPE":"0","CENTER_NAME":"EARTH","SEMIMAJOR_AXIS":"6925.424","COUNTRY_CODE":"US","CLASSIFICATION_TYPE":"U","FILE":"3904305","MEAN_MOTION_DOT":"0.00026720","TLE_LINE2":"2 47916  53.0530 232.7671 0001258  84.5575 275.5558 15.06375375120151","LAUNCH_DATE":"2021-03-14","ELEMENT_SET_NO":"999","MEAN_ELEMENT_THEORY":"SGP4","TIME_SYSTEM":"UTC","MEAN_ANOMALY":"275.5558","REV_AT_EPOCH":"12015","OBJECT_ID":"2021-021BJ","ARG_OF_PERICENTER":"84.5575","SITE":"AFETR","MEAN_MOTION":"15.06375375","NORAD_CAT_ID":"47916","DECAY_DATE":null,"APOAPSIS":"548.160","REF_FRAME":"TEME","PERIOD":"95.594","RCS_SIZE":"LARGE","GP_ID":"231473388","TLE_LINE1":"1 47916U 21021BJ  23128.60815477  .00026720  00000-0  18071-2 0  9993","PERIAPSIS":"546.418","MEAN_MOTION_DDOT":"0.0000000000000","BSTAR":"0.00180710000000","ECCENTRICITY":"0.00012580","OBJECT_NAME":"STARLINK-2378","RA_OF_ASC_NODE":"232.7671"}];
